ONEWEB-0291             
1 49081U 21075G   24305.79805439  .00000070  00000+0  14590-3 0  9994
2 49081  87.9066 124.0751 0001288  80.7021 279.4256 13.17647744155467
ONEWEB-0293             
1 49082U 21075H   24305.74742629  .00000040  00000+0  70561-4 0  9999
2 49082  87.9071 124.1056 0001479  77.7494 282.3803 13.17650089155484
ONEWEB-0294             
1 49083U 21075J   24305.82309641  .00000234  00000+0  61437-3 0  9998
2 49083  87.8839 108.8305 0001226  64.5106 295.6150 13.12445118157738
ONEWEB-0295             
1 49084U 21075K   24306.50595892  .00000087  00000+0  19206-3 0  9993
2 49084  87.9072 123.9327 0001133  86.8825 273.2436 13.17650147156501
ONEWEB-0296             
1 49085U 21075L   24306.18479348 -.00000303  00000+0 -87830-3 0  9996
2 49085  87.8844 108.7622 0000841  78.8862 281.2361 13.12445583157782
ONEWEB-0297             
1 49086U 21075M   24306.21564372  .00000515  00000+0  13961-2 0  9999
2 49086  87.8851 108.7729 0001479  92.0215 268.1083 13.12442739158390
ONEWEB-0298             
1 49087U 21075N   24306.20641794 -.00000079  00000+0 -23627-3 0  9991
2 49087  87.9074 124.0102 0001455  94.7368 265.3929 13.17648008156520
ONEWEB-0299             
1 49088U 21075P   24306.20809518  .00000014  00000+0  25169-5 0  9994
2 49088  87.9066 123.9733 0001372  95.4374 264.6914 13.17646871156480
